HELIOS 2A               
1 28492U 04049A   23005.33415469  .00001621  00000+0  15873-3 0  9993
2 28492  98.2593 323.1005 0014769 134.5574 225.6839 14.93765464965254
SPIRALE A               
1 33751U 09008C   23005.42782665  .00000167  00000+0  66689-3 0  9997
2 33751   2.1079  63.3495 5461632 267.9995  31.6856  4.58901175204098
SPIRALE B               
1 33752U 09008D   23005.26567494  .00002125  00000+0  87577-3 0  9996
2 33752   2.2009   9.1013 6835867   5.8875 359.2172  2.83600018130792
SAPPHIRE                
1 39088U 13009C   23005.29981769  .00000152  00000+0  69093-4 0  9990
2 39088  98.4153 200.9344 0012092  41.2858 318.9239 14.34358501516050
